[{"OBJECT_NAME":"ONEWEB-0418","OBJECT_ID":"2021-132AA","EPOCH":"2026-03-09T20:47:10.557888","MEAN_MOTION":13.18685618,"ECCENTRICITY":0.00017991,"INCLINATION":87.9254,"RA_OF_ASC_NODE":355.1791,"ARG_OF_PERICENTER":65.9403,"MEAN_ANOMALY":294.1917,"EPHEMERIS_TYPE":0,"CLASSIFICATION_TYPE":"U","NORAD_CAT_ID":50493,"ELEMENT_SET_NO":999,"REV_AT_EPOCH":20857,"BSTAR":0.0001954387,"MEAN_MOTION_DOT":9.0e-7,"MEAN_MOTION_DDOT":0},{"OBJECT_NAME":"UNKNOWN","OBJECT_ID":"","EPOCH":"2026-03-06T15:35:58.139808","MEAN_MOTION":13.15583679,"ECCENTRICITY":0.00194869,"INCLINATION":82.5467,"RA_OF_ASC_NODE":217.4429,"ARG_OF_PERICENTER":167.5979,"MEAN_ANOMALY":192.5626,"EPHEMERIS_TYPE":0,"CLASSIFICATION_TYPE":"U","NORAD_CAT_ID":270264,"ELEMENT_SET_NO":999,"REV_AT_EPOCH":28717,"BSTAR":0.0016239036,"MEAN_MOTION_DOT":6.25e-6,"MEAN_MOTION_DDOT":0}]
